[{"OBJECT_NAME":"STARLINK-33573","OBJECT_ID":"2025-015W","EPOCH":"2026-03-09T22:38:15.216288","MEAN_MOTION":15.30218501,"ECCENTRICITY":0.00027756,"INCLINATION":53.1602,"RA_OF_ASC_NODE":321.0146,"ARG_OF_PERICENTER":168.4626,"MEAN_ANOMALY":191.6439,"EPHEMERIS_TYPE":0,"CLASSIFICATION_TYPE":"U","NORAD_CAT_ID":62778,"ELEMENT_SET_NO":999,"REV_AT_EPOCH":6452,"BSTAR":0.00095713124,"MEAN_MOTION_DOT":0.00028113,"MEAN_MOTION_DDOT":0},{"OBJECT_NAME":"SCS-01 M","OBJECT_ID":"2025-100M","EPOCH":"2026-03-09T23:50:15.541152","MEAN_MOTION":15.31880861,"ECCENTRICITY":0.00078021,"INCLINATION":97.3725,"RA_OF_ASC_NODE":145.6908,"ARG_OF_PERICENTER":292.3826,"MEAN_ANOMALY":67.6588,"EPHEMERIS_TYPE":0,"CLASSIFICATION_TYPE":"U","NORAD_CAT_ID":63993,"ELEMENT_SET_NO":999,"REV_AT_EPOCH":4565,"BSTAR":0.0012010051,"MEAN_MOTION_DOT":0.00037061,"MEAN_MOTION_DDOT":0}]
